{"type": "FeatureCollection", "features": [ {"type": "Feature", "properties": {"norad_id": 30558, "name": "FENGYUN 1C DEB", "group": "fengyun-1c-debris", "lat": -27.799584404622895, "lon": 146.65549302008927, "alt_km": 1173.3227681926028, "timestamp": "2025-12-27T21:25:02.791407+00:00", "meta": {"OBJECT_NAME": "FENGYUN 1C DEB", "OBJECT_ID": "1999-025AKY", "EPOCH": "2025-12-18T02:35:59.256672", "MEAN_MOTION": 13.28535877, "ECCENTRICITY": 0.04271131, "INCLINATION": 99.4659, "RA_OF_ASC_NODE": 132.6231, "ARG_OF_PERICENTER": 260.3076, "MEAN_ANOMALY": 94.9567, "EPHEMERIS_TYPE": 0, "CLASSIFICATION_TYPE": "U", "NORAD_CAT_ID": 30558, "ELEMENT_SET_NO": 999, "REV_AT_EPOCH": 90829, "BSTAR": 0.0032374201, "MEAN_MOTION_DOT": 2.396e-05, "MEAN_MOTION_DDOT": 0}, "tle": {"line1": "1 30558U 99025AKY 25352.10832473  .00002396  00000+0  32374-2 0  9991", "line2": "2 30558  99.4659 132.6231 0427113 260.3076  94.9567 13.28535877908292"}}, "geometry": {"type": "Point", "coordinates": [146.65549302008927, -27.799584404622895]}}, {"type": "Feature", "properties": {"norad_id": 30560, "name": "FENGYUN 1C DEB", "group": "fengyun-1c-debris", "lat": 44.6299600167506, "lon": -176.0962737681353, "alt_km": 761.6821661800459, "timestamp": "2025-12-27T21:25:02.791421+00:00", "meta": {"OBJECT_NAME": "FENGYUN 1C DEB", "OBJECT_ID": "1999-025ALA", "EPOCH": "2025-12-26T23:00:42.363360", "MEAN_MOTION": 14.17041583, "ECCENTRICITY": 0.0115564, "INCLINATION": 98.6645, "RA_OF_ASC_NODE": 354.3365, "ARG_OF_PERICENTER": 170.7845, "MEAN_ANOMALY": 244.7885, "EPHEMERIS_TYPE": 0, "CLASSIFICATION_TYPE": "U", "NORAD_CAT_ID": 30560, "ELEMENT_SET_NO": 999, "REV_AT_EPOCH": 97570, "BSTAR": 0.00027206, "MEAN_MOTION_DOT": 5.42e-06, "MEAN_MOTION_DDOT": 0}, "tle": {"line1": "1 30560U 99025ALA 25360.95882365  .00000542  00000+0  27206-3 0  9991", "line2": "2 30560  98.6645 354.3365 0115564 170.7845 244.7885 14.17041583975707"}}, "geometry": {"type": "Point", "coordinates": [-176.0962737681353, 44.6299600167506]}}, {"type": "Feature", "properties": {"norad_id": 30561, "name": "FENGYUN 1C DEB", "group": "fengyun-1c-debris", "lat": -75.77666292836261, "lon": 40.88814513648029, "alt_km": 900.3563807609617, "timestamp": "2025-12-27T21:25:02.791431+00:00", "meta": {"OBJECT_NAME": "FENGYUN 1C DEB", "OBJECT_ID": "1999-025ALB", "EPOCH": "2025-12-27T12:17:42.955008", "MEAN_MOTION": 14.1128932, "ECCENTRICITY": 0.0060707, "INCLINATION": 98.7248, "RA_OF_ASC_NODE": 3.2301, "ARG_OF_PERICENTER": 72.703, "MEAN_ANOMALY": 78.9145, "EPHEMERIS_TYPE": 0, "CLASSIFICATION_TYPE": "U", "NORAD_CAT_ID": 30561, "ELEMENT_SET_NO": 999, "REV_AT_EPOCH": 97186, "BSTAR": 0.00034187, "MEAN_MOTION_DOT": 5.86e-06, "MEAN_MOTION_DDOT": 0}, "tle": {"line1": "1 30561U 99025ALB 25361.51230272  .00000586  00000+0  34187-3 0  9993", "line2": "2 30561  98.7248   3.2301 0060707  72.7030  78.9145 14.11289320971869"}}, "geometry": {"type": "Point", "coordinates": [40.88814513648029, -75.77666292836261]}}, {"type": "Feature", "properties": {"norad_id": 30562, "name": "FENGYUN 1C DEB", "group": "fengyun-1c-debris", "lat": 71.02372688949238, "lon": 42.91854006435138, "alt_km": 844.6526715447744, "timestamp": "2025-12-27T21:25:02.791444+00:00", "meta": {"OBJECT_NAME": "FENGYUN 1C DEB", "OBJECT_ID": "1999-025ALC", "EPOCH": "2025-12-27T04:19:10.739424", "MEAN_MOTION": 14.23154911, "ECCENTRICITY": 0.00601316, "INCLINATION": 98.7627, "RA_OF_ASC_NODE": 68.8602, "ARG_OF_PERICENTER": 223.8172, "MEAN_ANOMALY": 161.8089, "EPHEMERIS_TYPE": 0, "CLASSIFICATION_TYPE": "U", "NORAD_CAT_ID": 30562, "ELEMENT_SET_NO": 999, "REV_AT_EPOCH": 97205, "BSTAR": 0.0018429937, "MEAN_MOTION_DOT": 4.198e-05, "MEAN_MOTION_DDOT": 0}, "tle": {"line1": "1 30562U 99025ALC 25361.17998541  .00004198  00000+0  18430-2 0  9991", "line2": "2 30562  98.7627  68.8602 0060131 223.8172 161.8089 14.23154911972050"}}, "geometry": {"type": "Point", "coordinates": [42.91854006435138, 71.02372688949238]}}, {"type": "Feature", "properties": {"norad_id": 30564, "name": "FENGYUN 1C DEB", "group": "fengyun-1c-debris", "lat": 34.68808677703877, "lon": -160.60085264830707, "alt_km": 814.4835132724284, "timestamp": "2025-12-27T21:25:02.791454+00:00", "meta": {"OBJECT_NAME": "FENGYUN 1C DEB", "OBJECT_ID": "1999-025ALE", "EPOCH": "2025-12-27T07:40:39.944928", "MEAN_MOTION": 14.05788946, "ECCENTRICITY": 0.0202918, "INCLINATION": 98.796, "RA_OF_ASC_NODE": 12.6911, "ARG_OF_PERICENTER": 78.0563, "MEAN_ANOMALY": 48.8863, "EPHEMERIS_TYPE": 0, "CLASSIFICATION_TYPE": "U", "NORAD_CAT_ID": 30564, "ELEMENT_SET_NO": 999, "REV_AT_EPOCH": 96500, "BSTAR": 0.00060238, "MEAN_MOTION_DOT": 1.143e-05, "MEAN_MOTION_DDOT": 0}, "tle": {"line1": "1 30564U 99025ALE 25361.31990677  .00001143  00000+0  60238-3 0  9992", "line2": "2 30564  98.7960  12.6911 0202918  78.0563  48.8863 14.05788946965009"}}, "geometry": {"type": "Point", "coordinates": [-160.60085264830707, 34.68808677703877]}}, {"type": "Feature", "properties": {"norad_id": 30565, "name": "FENGYUN 1C DEB", "group": "fengyun-1c-debris", "lat": 13.89454707871715, "lon": 53.322857459732134, "alt_km": 946.7162306804057, "timestamp": "2025-12-27T21:25:02.791465+00:00", "meta": {"OBJECT_NAME": "FENGYUN 1C DEB", "OBJECT_ID": "1999-025ALF", "EPOCH": "2025-12-26T14:06:30.163104", "MEAN_MOTION": 14.10029395, "ECCENTRICITY": 0.0142529, "INCLINATION": 98.4526, "RA_OF_ASC_NODE": 229.9885, "ARG_OF_PERICENTER": 317.025, "MEAN_ANOMALY": 71.3981, "EPHEMERIS_TYPE": 0, "CLASSIFICATION_TYPE": "U", "NORAD_CAT_ID": 30565, "ELEMENT_SET_NO": 999, "REV_AT_EPOCH": 96122, "BSTAR": 0.0019542, "MEAN_MOTION_DOT": 3.75e-05, "MEAN_MOTION_DDOT": 0}, "tle": {"line1": "1 30565U 99025ALF 25360.58784911  .00003750  00000+0  19542-2 0  9990", "line2": "2 30565  98.4526 229.9885 0142529 317.0250  71.3981 14.10029395961222"}}, "geometry": {"type": "Point", "coordinates": [53.322857459732134, 13.89454707871715]}}, {"type": "Feature", "properties": {"norad_id": 30566, "name": "FENGYUN 1C DEB", "group": "fengyun-1c-debris", "lat": -22.85319055037369, "lon": -133.0846808470719, "alt_km": 835.6492615388552, "timestamp": "2025-12-27T21:25:02.791475+00:00", "meta": {"OBJECT_NAME": "FENGYUN 1C DEB", "OBJECT_ID": "1999-025ALG", "EPOCH": "2025-12-26T09:05:12.083712", "MEAN_MOTION": 14.11750619, "ECCENTRICITY": 0.00683669, "INCLINATION": 99.2155, "RA_OF_ASC_NODE": 49.2843, "ARG_OF_PERICENTER": 144.7208, "MEAN_ANOMALY": 288.3615, "EPHEMERIS_TYPE": 0, "CLASSIFICATION_TYPE": "U", "NORAD_CAT_ID": 30566, "ELEMENT_SET_NO": 999, "REV_AT_EPOCH": 96575, "BSTAR": 0.0015274237, "MEAN_MOTION_DOT": 2.799e-05, "MEAN_MOTION_DDOT": 0}, "tle": {"line1": "1 30566U 99025ALG 25360.37861208  .00002799  00000+0  15274-2 0  9993", "line2": "2 30566  99.2155  49.2843 0068366 144.7208 288.3615 14.11750619965758"}}, "geometry": {"type": "Point", "coordinates": [-133.0846808470719, -22.85319055037369]}}, {"type": "Feature", "properties": {"norad_id": 30567, "name": "FENGYUN 1C DEB", "group": "fengyun-1c-debris", "lat": 4.651051137771573, "lon": -8.53788423096431, "alt_km": 927.2764760513928, "timestamp": "2025-12-27T21:25:02.791485+00:00", "meta": {"OBJECT_NAME": "FENGYUN 1C DEB", "OBJECT_ID": "1999-025ALH", "EPOCH": "2025-12-27T11:46:30.121824", "MEAN_MOTION": 14.08912772, "ECCENTRICITY": 0.010945, "INCLINATION": 98.7766, "RA_OF_ASC_NODE": 351.791, "ARG_OF_PERICENTER": 147.6993, "MEAN_ANOMALY": 341.2409, "EPHEMERIS_TYPE": 0, "CLASSIFICATION_TYPE": "U", "NORAD_CAT_ID": 30567, "ELEMENT_SET_NO": 999, "REV_AT_EPOCH": 96981, "BSTAR": 0.00029992, "MEAN_MOTION_DOT": 5.06e-06, "MEAN_MOTION_DDOT": 0}, "tle": {"line1": "1 30567U 99025ALH 25361.49062641  .00000506  00000+0  29992-3 0  9999", "line2": "2 30567  98.7766 351.7910 0109450 147.6993 341.2409 14.08912772969817"}}, "geometry": {"type": "Point", "coordinates": [-8.53788423096431, 4.651051137771573]}}, {"type": "Feature", "properties": {"norad_id": 30568, "name": "FENGYUN 1C DEB", "group": "fengyun-1c-debris", "lat": -76.45246614521837, "lon": -47.66662226379189, "alt_km": 718.7766342827208, "timestamp": "2025-12-27T21:25:02.791495+00:00", "meta": {"OBJECT_NAME": "FENGYUN 1C DEB", "OBJECT_ID": "1999-025ALJ", "EPOCH": "2025-12-27T10:27:48.508704", "MEAN_MOTION": 14.55558693, "ECCENTRICITY": 0.0015607, "INCLINATION": 98.9426, "RA_OF_ASC_NODE": 172.6498, "ARG_OF_PERICENTER": 149.9889, "MEAN_ANOMALY": 239.3569, "EPHEMERIS_TYPE": 0, "CLASSIFICATION_TYPE": "U", "NORAD_CAT_ID": 30568, "ELEMENT_SET_NO": 999, "REV_AT_EPOCH": 97873, "BSTAR": 0.0037765, "MEAN_MOTION_DOT": 0.00016473, "MEAN_MOTION_DDOT": 0}, "tle": {"line1": "1 30568U 99025ALJ 25361.43597811  .00016473  00000+0  37765-2 0  9992", "line2": "2 30568  98.9426 172.6498 0015607 149.9889 239.3569 14.55558693978738"}}, "geometry": {"type": "Point", "coordinates": [-47.66662226379189, -76.45246614521837]}}, {"type": "Feature", "properties": {"norad_id": 30569, "name": "FENGYUN 1C DEB", "group": "fengyun-1c-debris", "lat": -23.120630531120767, "lon": -41.72782105244487, "alt_km": 656.8595724741845, "timestamp": "2025-12-27T21:25:02.791509+00:00", "meta": {"OBJECT_NAME": "FENGYUN 1C DEB", "OBJECT_ID": "1999-025ALK", "EPOCH": "2025-12-26T21:41:40.570656", "MEAN_MOTION": 14.74285318, "ECCENTRICITY": 0.0005977, "INCLINATION": 98.7372, "RA_OF_ASC_NODE": 140.9721, "ARG_OF_PERICENTER": 33.87, "MEAN_ANOMALY": 326.2886, "EPHEMERIS_TYPE": 0, "CLASSIFICATION_TYPE": "U", "NORAD_CAT_ID": 30569, "ELEMENT_SET_NO": 999, "REV_AT_EPOCH": 98415, "BSTAR": 0.0041241, "MEAN_MOTION_DOT": 0.00027341, "MEAN_MOTION_DDOT": 0}, "tle": {"line1": "1 30569U 99025ALK 25360.90394179  .00027341  00000+0  41241-2 0  9996", "line2": "2 30569  98.7372 140.9721 0005977  33.8700 326.2886 14.74285318984159"}}, "geometry": {"type": "Point", "coordinates": [-41.72782105244487, -23.120630531120767]}}]}